OBJECT_NAME,OBJECT_ID,EPOCH,MEAN_MOTION,ECCENTRICITY,INCLINATION,RA_OF_ASC_NODE,ARG_OF_PERICENTER,MEAN_ANOMALY,EPHEMERIS_TYPE,CLASSIFICATION_TYPE,NORAD_CAT_ID,ELEMENT_SET_NO,REV_AT_EPOCH,BSTAR,MEAN_MOTION_DOT,MEAN_MOTION_DDOT
ASTRA 2G,2014-089A,2026-07-21T06:22:18.680736,1.00271950,.00045854,0.0610,39.5961,38.8479,344.3244,0,U,40364,999,4230,0,.151E-5,0
FENGYUN 2G,2014-090A,2026-07-19T15:21:36.356832,1.00279249,.00039431,5.7192,72.4242,173.6464,21.2039,0,U,40367,999,4232,0,-.309E-5,0
MUOS-3,2015-002A,2026-07-21T06:09:57.365280,1.00273194,.00540059,4.5844,43.6436,177.0402,155.3208,0,U,40374,999,4192,0,-.13E-5,0
INMARSAT 5-F2,2015-005A,2026-07-21T05:58:35.952672,1.00271960,.00006941,0.0196,61.3757,62.3104,209.9787,0,U,40384,999,4133,0,-.284E-5,0
ABS-3A,2015-010A,2026-07-21T06:13:27.030432,1.00270759,.00016283,0.0141,52.2302,12.1832,325.0102,0,U,40424,999,4171,0,-.25E-6,0
EUTELSAT 115 WEST B,2015-010B,2026-07-21T06:08:38.557248,1.00271644,.00001921,0.0020,168.9612,235.9207,231.3910,0,U,40425,999,4172,0,-.24E-6,0
EXPRESS-AM7,2015-012A,2026-07-21T06:25:40.856736,1.00274061,.00030141,0.0219,80.0112,45.1997,310.2251,0,U,40505,999,4134,0,.152E-5,0
BEIDOU-3S IGSO-1S,2015-019A,2026-07-02T19:12:21.705408,1.00680073,.00768606,49.1798,295.2769,219.1125,144.2493,0,U,40549,999,4123,0,-.19E-5,0
THOR 7,2015-022A,2026-07-21T06:14:04.470144,1.00270605,.00027553,0.0012,222.4935,254.1731,275.2201,0,U,40613,999,4115,0,-.8E-7,0
TURKMENALEM52E/MONACOSAT,2015-023A,2026-07-21T06:28:48.057888,1.00273755,.0002828,0.0167,72.2878,49.6492,326.3175,0,U,40617,999,4119,0,.104E-5,0
DIRECTV 15,2015-026A,2026-07-21T06:15:38.575296,1.00271805,.0000392,0.0217,79.8049,342.4285,227.8140,0,U,40663,999,4080,0,-.102E-5,0
SKY MEXICO-1,2015-026B,2026-07-21T03:04:38.453376,1.00270820,.00026408,0.0284,273.5779,220.1685,132.5063,0,U,40664,999,4079,0,-.234E-5,0
METEOSAT-11 (MSG-4),2015-034A,2026-07-21T06:16:56.694720,1.00273754,.00020142,3.2836,70.8880,355.3952,336.2509,0,U,40732,999,755,0,.61E-6,0
STAR ONE C4,2015-034B,2026-07-21T04:11:41.831808,1.00272817,.00016718,0.0451,298.1833,149.8018,203.8711,0,U,40733,999,4035,0,-.264E-5,0
WGS F7 (USA 263),2015-036A,2026-07-21T05:21:27.643104,1.00271761,.00001466,0.0173,52.1980,83.6520,58.5012,0,U,40746,999,4021,0,.18E-6,0
INTELSAT 34 (IS-34),2015-039A,2026-07-21T05:58:28.465248,1.00271303,.00005889,0.0129,342.8507,50.7114,299.5802,0,U,40874,999,3997,0,-.285E-5,0
EUTELSAT 8 WEST B,2015-039B,2026-07-21T06:11:57.172704,1.00271482,.00037292,0.0631,1.7259,113.2468,269.0351,0,U,40875,999,3999,0,-.65E-6,0
GSAT-6,2015-041A,2026-07-21T03:12:31.764672,1.00272326,.00029203,2.0036,82.1619,35.1217,312.2692,0,U,40880,999,3993,0,-.161E-5,0
INMARSAT 5-F3,2015-042A,2026-07-21T04:14:38.690880,1.00272078,.00004513,0.0188,61.7412,91.1369,29.3120,0,U,40882,999,3991,0,.51E-6,0
MUOS-4,2015-044A,2026-07-21T04:53:00.372192,1.00272105,.00564942,4.3926,42.4270,3.8041,40.9656,0,U,40887,999,3990,0,-.95E-6,0
TJS-1,2015-046A,2026-07-21T05:15:50.682240,1.00271442,.00052646,0.4089,84.7667,21.5075,66.6896,0,U,40892,999,3991,0,-.156E-5,0
EXPRESS-AM8,2015-048A,2026-07-21T09:35:29.182848,1.00274148,.000023,0.0220,294.1756,354.7965,140.0565,0,U,40895,999,3968,0,-.11E-5,0
BEIDOU-3S IGSO-2S,2015-053A,2026-07-21T03:15:09.014400,1.00252195,.00660079,49.1678,258.3743,193.7295,348.4957,0,U,40938,999,3969,0,-.101E-5,0
SKY MUSTER 1 (NBN1A),2015-054A,2026-07-21T06:54:15.616800,1.00271705,.00017482,0.0103,29.1558,88.6108,65.0985,0,U,40940,999,3960,0,-.277E-5,0
ARSAT 2,2015-054B,2026-07-21T05:51:06.670944,1.00272319,.000223,0.0487,270.5258,196.1677,199.0876,0,U,40941,999,3964,0,-.224E-5,0
MORELOS 3,2015-056A,2026-07-21T06:08:38.557248,1.00271351,.00006351,3.2153,15.9285,161.9524,100.1993,0,U,40946,999,3962,0,-.44E-6,0
TURKSAT 4B,2015-060A,2026-07-21T06:28:25.593888,1.00270549,.00022292,0.0351,247.5169,222.0799,336.5075,0,U,40984,999,3943,0,.116E-5,0
ZHONGXING-2C,2015-063A,2026-07-21T02:16:38.692128,1.00269579,.0008182,0.3594,88.5228,100.1978,247.7291,0,U,41021,999,3931,0,-.323E-5,0
GSAT-15,2015-065A,2026-07-21T04:03:02.806272,1.00271788,.00035787,0.1023,263.4811,178.2143,11.5040,0,U,41028,999,3914,0,-.257E-5,0
BADR-7 (ARABSAT-6B),2015-065B,2026-07-21T06:21:41.240160,1.00271224,.00048042,0.0396,221.9794,341.5615,216.8767,0,U,41029,999,3910,0,.146E-5,0
