ASTRA 2G                
1 40364U 14089A   26202.26549399  .00000151  00000+0  00000+0 0  9993
2 40364   0.0610  39.5961 0004585  38.8479 344.3244  1.00271950 42308
FENGYUN 2G              
1 40367U 14090A   26200.64000413 -.00000309  00000+0  00000+0 0  9993
2 40367   5.7192  72.4242 0003943 173.6464  21.2039  1.00279249 42329
MUOS-3                  
1 40374U 15002A   26202.25691395 -.00000130  00000+0  00000+0 0  9991
2 40374   4.5844  43.6436 0054005 177.0402 155.3208  1.00273194 41923
INMARSAT 5-F2           
1 40384U 15005A   26202.24902723 -.00000284  00000+0  00000+0 0  9994
2 40384   0.0196  61.3757 0000694  62.3104 209.9787  1.00271960 41330
ABS-3A                  
1 40424U 15010A   26202.25934063 -.00000025  00000+0  00000+0 0  9991
2 40424   0.0141  52.2302 0001628  12.1832 325.0102  1.00270759 41717
EUTELSAT 115 WEST B     
1 40425U 15010B   26202.25600182 -.00000024  00000+0  00000+0 0  9993
2 40425   0.0020 168.9612 0000192 235.9207 231.3910  1.00271644 41720
EXPRESS-AM7             
1 40505U 15012A   26202.26783399  .00000152  00000+0  00000+0 0  9998
2 40505   0.0219  80.0112 0003014  45.1997 310.2251  1.00274061 41340
BEIDOU-3S IGSO-1S       
1 40549U 15019A   26183.80025122 -.00000190  00000+0  00000+0 0  9997
2 40549  49.1798 295.2769 0076860 219.1125 144.2493  1.00680073 41232
THOR 7                  
1 40613U 15022A   26202.25977396 -.00000008  00000+0  00000+0 0  9991
2 40613   0.0012 222.4935 0002755 254.1731 275.2201  1.00270605 41159
TURKMENALEM52E/MONACOSAT
1 40617U 15023A   26202.27000067  .00000104  00000+0  00000+0 0  9996
2 40617   0.0167  72.2878 0002828  49.6492 326.3175  1.00273755 41194
DIRECTV 15              
1 40663U 15026A   26202.26086314 -.00000102  00000+0  00000+0 0  9997
2 40663   0.0217  79.8049 0000392 342.4285 227.8140  1.00271805 40800
SKY MEXICO-1            
1 40664U 15026B   26202.12822284 -.00000234  00000+0  00000+0 0  9993
2 40664   0.0284 273.5779 0002640 220.1685 132.5063  1.00270820 40792
METEOSAT-11 (MSG-4)     
1 40732U 15034A   26202.26176730  .00000061  00000+0  00000+0 0  9998
2 40732   3.2836  70.8880 0002014 355.3952 336.2509  1.00273754  7554
STAR ONE C4             
1 40733U 15034B   26202.17478972 -.00000264  00000+0  00000+0 0  9998
2 40733   0.0451 298.1833 0001671 149.8018 203.8711  1.00272817 40351
WGS F7 (USA 263)        
1 40746U 15036A   26202.22323661  .00000018  00000+0  00000+0 0  9990
2 40746   0.0173  52.1980 0000146  83.6520  58.5012  1.00271761 40217
INTELSAT 34 (IS-34)     
1 40874U 15039A   26202.24894057 -.00000285  00000+0  00000+0 0  9996
2 40874   0.0129 342.8507 0000588  50.7114 299.5802  1.00271303 39975
EUTELSAT 8 WEST B       
1 40875U 15039B   26202.25830061 -.00000065  00000+0  00000+0 0  9999
2 40875   0.0631   1.7259 0003729 113.2468 269.0351  1.00271482 39997
GSAT-6                  
1 40880U 15041A   26202.13370098 -.00000161  00000+0  00000+0 0  9991
2 40880   2.0036  82.1619 0002920  35.1217 312.2692  1.00272326 39934
INMARSAT 5-F3           
1 40882U 15042A   26202.17683670  .00000051  00000+0  00000+0 0  9998
2 40882   0.0188  61.7412 0000451  91.1369  29.3120  1.00272078 39917
MUOS-4                  
1 40887U 15044A   26202.20347653 -.00000095  00000+0  00000+0 0  9996
2 40887   4.3926  42.4270 0056494   3.8041  40.9656  1.00272105 39905
TJS-1                   
1 40892U 15046A   26202.21933660 -.00000156  00000+0  00000+0 0  9992
2 40892   0.4089  84.7667 0005264  21.5075  66.6896  1.00271442 39915
EXPRESS-AM8             
1 40895U 15048A   26202.39964332 -.00000110  00000+0  00000+0 0  9996
2 40895   0.0220 294.1756 0000230 354.7965 140.0565  1.00274148 39684
BEIDOU-3S IGSO-2S       
1 40938U 15053A   26202.13552100 -.00000101  00000+0  00000+0 0  9998
2 40938  49.1678 258.3743 0066007 193.7295 348.4957  1.00252195 39690
SKY MUSTER 1 (NBN1A)    
1 40940U 15054A   26202.28768075 -.00000277  00000+0  00000+0 0  9992
2 40940   0.0103  29.1558 0001748  88.6108  65.0985  1.00271705 39608
ARSAT 2                 
1 40941U 15054B   26202.24382721 -.00000224  00000+0  00000+0 0  9991
2 40941   0.0487 270.5258 0002230 196.1677 199.0876  1.00272319 39649
MORELOS 3               
1 40946U 15056A   26202.25600182 -.00000044  00000+0  00000+0 0  9993
2 40946   3.2153  15.9285 0000635 161.9524 100.1993  1.00271351 39624
TURKSAT 4B              
1 40984U 15060A   26202.26974067  .00000116  00000+0  00000+0 0  9996
2 40984   0.0351 247.5169 0002229 222.0799 336.5075  1.00270549 39432
ZHONGXING-2C            
1 41021U 15063A   26202.09489227 -.00000323  00000+0  00000+0 0  9993
2 41021   0.3594  88.5228 0008182 100.1978 247.7291  1.00269579 39316
GSAT-15                 
1 41028U 15065A   26202.16878248 -.00000257  00000+0  00000+0 0  9991
2 41028   0.1023 263.4811 0003578 178.2143  11.5040  1.00271788 39149
BADR-7 (ARABSAT-6B)     
1 41029U 15065B   26202.26506065  .00000146  00000+0  00000+0 0  9994
2 41029   0.0396 221.9794 0004804 341.5615 216.8767  1.00271224 39100
